FM-6                    
1 39360U 13058A   26200.16954655 -.00000021  00000+0  00000+0 0  9991
2 39360   0.0133  42.8142 0001287 152.0607  46.7740  1.00273206 46391
RADUGA-1M 3             
1 39375U 13062A   26200.27082826  .00000145  00000+0  00000+0 0  9992
2 39375   6.0383  71.9418 0002049 283.3935  74.1915  1.00271264 46423
SES-8                   
1 39460U 13071A   26200.28261498 -.00000274  00000+0  00000+0 0  9996
2 39460   0.0463 250.6937 0002780 223.5201  19.5936  1.00271481 44758
INMARSAT 5-F1           
1 39476U 13073A   26200.18219453  .00000023  00000+0  00000+0 0  9999
2 39476   0.0175  56.8702 0000257 278.6095  89.7170  1.00270713 45892
TKSAT-1 (TUPAC KATARI)  
1 39481U 13075A   26200.23372256 -.00000200  00000+0  00000+0 0  9992
2 39481   0.0030 280.9509 0002578 187.2182 185.7869  1.00272982 45929
EXPRESS-AM5             
1 39487U 13077A   26199.72132375 -.00000287  00000+0  00000+0 0  9992
2 39487   0.0411 234.0383 0000098 348.7143 113.4686  1.00269666 46677
GSAT-14                 
1 39498U 14001A   26200.19608413 -.00000082  00000+0  00000+0 0  9990
2 39498   0.0208  92.0655 0002000 114.5654 234.9025  1.00271578 45690
THAICOM 6               
1 39500U 14002A   26200.17524994 -.00000127  00000+0  00000+0 0  9994
2 39500   0.0569 107.6053 0004448  18.4458 312.5111  1.00272930 45772
TDRS 12                 
1 39504U 14004A   26200.25583486 -.00000276  00000+0  00000+0 0  9995
2 39504   4.0093  19.6113 0004309 201.5799 127.0961  1.00271643 44591
ABS-2                   
1 39508U 14006A   26200.18913678 -.00000091  00000+0  00000+0 0  9998
2 39508   0.0190  50.4766 0003456  51.9147 337.5857  1.00271914 45596
ATHENA-FIDUS            
1 39509U 14006B   26200.20008044  .00000149  00000+0  00000+0 0  9997
2 39509   0.0330 100.3946 0001480  24.8745 281.5356  1.00272035 45403
TURKSAT 4A              
1 39522U 14007A   26200.27221494  .00000141  00000+0  00000+0 0  9998
2 39522   0.0848 278.8295 0001180 333.7905 184.4312  1.00269272 45296
EXPRESS-AT1             
1 39612U 14010A   26200.24697269 -.00000019  00000+0  00000+0 0  9991
2 39612   0.3386  85.3711 0004476  56.0632 310.9532  1.00309993 45142
EXPRESS-AT2             
1 39613U 14010B   26200.13246604  .00000073  00000+0  00000+0 0  9992
2 39613   0.0175  58.4447 0000246  33.5688 308.5863  1.00272812 44817
AMAZONAS 4A             
1 39616U 14011A   26200.23516900 -.00000258  00000+0  00000+0 0  9992
2 39616   0.0590 180.1039 0004730 317.7128 169.8630  1.00272547 45039
ASTRA 5B                
1 39617U 14011B   26200.26857492  .00000132  00000+0  00000+0 0  9990
2 39617   0.0680 306.9267 0002047 178.5654 291.6985  1.00270422 44987
IRNSS-1B                
1 39635U 14017A   26199.70438067  .00000121  00000+0  00000+0 0  9993
2 39635  28.8702 239.8599 0022198 192.0035 173.4078  1.00276854 45116
LUCH-5V                 
1 39727U 14023A   26200.12316785 -.00000277  00000+0  00000+0 0  9996
2 39727   5.2102  69.4131 0002090  82.5905 283.9898  1.00272343 44685
KAZSAT-3                
1 39728U 14023B   26200.20424045  .00000055  00000+0  00000+0 0  9998
2 39728   0.0095 352.0231 0000363 217.1718 219.8270  1.00275008 42772
EUTELSAT 3B             
1 39773U 14030A   26200.26450157  .00000015  00000+0  00000+0 0  9991
2 39773   0.0619  11.4842 0004281 104.9355 278.9373  1.00272350 44387
ASIASAT 8 (AMOS-7)      
1 40107U 14046A   26200.28478166 -.00000338  00000+0  00000+0 0  9992
2 40107   0.0150  71.8330 0001605  31.0173  42.0500  1.00272369102474
ASIASAT 6               
1 40141U 14052A   26199.73516847 -.00000369  00000+0  00000+0 0  9997
2 40141   0.0194  81.2361 0000810  61.5362 178.3236  1.00272380 43391
OPTUS 10                
1 40146U 14054A   26200.10391928 -.00000153  00000+0  00000+0 0  9990
2 40146   0.0784 309.3396 0001843 161.3108  19.6639  1.00270268 43350
MEASAT-3B               
1 40147U 14054B   26200.12316785 -.00000247  00000+0  00000+0 0  9995
2 40147   0.0237   4.3866 0002723  75.3029 353.0824  1.00272375 43220
HIMAWARI-8              
1 40267U 14060A   26200.29180168 -.00000281  00000+0  00000+0 0  9995
2 40267   0.0150  44.4025 0001221 118.6236  19.7636  1.00270473 43080
IRNSS-1C                
1 40269U 14061A   26199.71006955 -.00000172  00000+0  00000+0 0  9992
2 40269   6.5950  88.3313 0021992   5.8558 180.9989  1.00271766 43009
INTELSAT 30 (IS-30)     
1 40271U 14062A   26200.23155557 -.00000156  00000+0  00000+0 0  9991
2 40271   0.0186  56.6968 0001643 335.4201 253.2172  1.00271945  7113
ARSAT 1                 
1 40272U 14062B   26200.23474600 -.00000265  00000+0  00000+0 0  9996
2 40272   0.0547 272.2378 0001947 197.0461 200.4391  1.00272638 42940
EUTELSAT 53A            
1 40277U 14064A   26199.85414904  .00000091  00000+0  00000+0 0  9995
2 40277   0.0135  40.3903 0001866 158.6633  98.1011  1.00275359 41886
GSAT-16                 
1 40332U 14078A   26200.13220604  .00000079  00000+0  00000+0 0  9994
2 40332   0.0202  55.9868 0007508  39.6203 303.9809  1.00270971 42423
DIRECTV 14              
1 40333U 14078B   26200.27961361 -.00000130  00000+0  00000+0 0  9991
2 40333   0.0137  54.0997 0000296 327.7583 276.6199  1.00270373 42360
YAMAL 401               
1 40345U 14082A   26200.13913941 -.00000233  00000+0  00000+0 0  9999
2 40345   0.0158 137.7297 0000343 293.0762   6.1421  1.00269350 42238
