OBJECT_NAME,OBJECT_ID,EPOCH,MEAN_MOTION,ECCENTRICITY,INCLINATION,RA_OF_ASC_NODE,ARG_OF_PERICENTER,MEAN_ANOMALY,EPHEMERIS_TYPE,CLASSIFICATION_TYPE,NORAD_CAT_ID,ELEMENT_SET_NO,REV_AT_EPOCH,BSTAR,MEAN_MOTION_DOT,MEAN_MOTION_DDOT
FM-6,2013-058A,2026-07-19T04:04:08.821920,1.00273206,.00012872,0.0133,42.8142,152.0607,46.7740,0,U,39360,999,4639,0,-.21E-6,0
RADUGA-1M 3,2013-062A,2026-07-19T06:29:59.561664,1.00271264,.00020493,6.0383,71.9418,283.3935,74.1915,0,U,39375,999,4642,0,.145E-5,0
SES-8,2013-071A,2026-07-19T06:46:57.934272,1.00271481,.00027808,0.0463,250.6937,223.5201,19.5936,0,U,39460,999,4475,0,-.274E-5,0
INMARSAT 5-F1,2013-073A,2026-07-19T04:22:21.607392,1.00270713,.00002577,0.0175,56.8702,278.6095,89.7170,0,U,39476,999,4589,0,.23E-6,0
TKSAT-1 (TUPAC KATARI),2013-075A,2026-07-19T05:36:33.629184,1.00272982,.00025783,0.0030,280.9509,187.2182,185.7869,0,U,39481,999,4592,0,-.2E-5,0
EXPRESS-AM5,2013-077A,2026-07-18T17:18:42.372000,1.00269666,.00000989,0.0411,234.0383,348.7143,113.4686,0,U,39487,999,4667,0,-.287E-5,0
GSAT-14,2014-001A,2026-07-19T04:42:21.668832,1.00271578,.00020007,0.0208,92.0655,114.5654,234.9025,0,U,39498,999,4569,0,-.82E-6,0
THAICOM 6,2014-002A,2026-07-19T04:12:21.594816,1.00272930,.00044486,0.0569,107.6053,18.4458,312.5111,0,U,39500,999,4577,0,-.127E-5,0
TDRS 12,2014-004A,2026-07-19T06:08:24.131904,1.00271643,.00043091,4.0093,19.6113,201.5799,127.0961,0,U,39504,999,4459,0,-.276E-5,0
ABS-2,2014-006A,2026-07-19T04:32:21.417792,1.00271914,.0003456,0.0190,50.4766,51.9147,337.5857,0,U,39508,999,4559,0,-.91E-6,0
ATHENA-FIDUS,2014-006B,2026-07-19T04:48:06.950016,1.00272035,.00014806,0.0330,100.3946,24.8745,281.5356,0,U,39509,999,4540,0,.149E-5,0
TURKSAT 4A,2014-007A,2026-07-19T06:31:59.370816,1.00269272,.00011805,0.0848,278.8295,333.7905,184.4312,0,U,39522,999,4529,0,.141E-5,0
EXPRESS-AT1,2014-010A,2026-07-19T05:55:38.440416,1.00309993,.00044767,0.3386,85.3711,56.0632,310.9532,0,U,39612,999,4514,0,-.19E-6,0
EXPRESS-AT2,2014-010B,2026-07-19T03:10:45.065856,1.00272812,.00002469,0.0175,58.4447,33.5688,308.5863,0,U,39613,999,4481,0,.73E-6,0
AMAZONAS 4A,2014-011A,2026-07-19T05:38:38.601600,1.00272547,.00047307,0.0590,180.1039,317.7128,169.8630,0,U,39616,999,4503,0,-.258E-5,0
ASTRA 5B,2014-011B,2026-07-19T06:26:44.873088,1.00270422,.00020478,0.0680,306.9267,178.5654,291.6985,0,U,39617,999,4498,0,.132E-5,0
IRNSS-1B,2014-017A,2026-07-18T16:54:18.489888,1.00276854,.00221986,28.8702,239.8599,192.0035,173.4078,0,U,39635,999,4511,0,.121E-5,0
LUCH-5V,2014-023A,2026-07-19T02:57:21.702240,1.00272343,.00020907,5.2102,69.4131,82.5905,283.9898,0,U,39727,999,4468,0,-.277E-5,0
KAZSAT-3,2014-023B,2026-07-19T04:54:06.374880,1.00275008,.00003634,0.0095,352.0231,217.1718,219.8270,0,U,39728,999,4277,0,.55E-6,0
EUTELSAT 3B,2014-030A,2026-07-19T06:20:52.935648,1.00272350,.00042816,0.0619,11.4842,104.9355,278.9373,0,U,39773,999,4438,0,.15E-6,0
ASIASAT 8 (AMOS-7),2014-046A,2026-07-19T06:50:05.135424,1.00272369,.00016053,0.0150,71.8330,31.0173,42.0500,0,U,40107,999,10247,0,-.338E-5,0
ASIASAT 6,2014-052A,2026-07-18T17:38:38.555808,1.00272380,.00008109,0.0194,81.2361,61.5362,178.3236,0,U,40141,999,4339,0,-.369E-5,0
OPTUS 10,2014-054A,2026-07-19T02:29:38.625792,1.00270268,.00018431,0.0784,309.3396,161.3108,19.6639,0,U,40146,999,4335,0,-.153E-5,0
MEASAT-3B,2014-054B,2026-07-19T02:57:21.702240,1.00272375,.00027232,0.0237,4.3866,75.3029,353.0824,0,U,40147,999,4322,0,-.247E-5,0
HIMAWARI-8,2014-060A,2026-07-19T07:00:11.665152,1.00270473,.00012213,0.0150,44.4025,118.6236,19.7636,0,U,40267,999,4308,0,-.281E-5,0
IRNSS-1C,2014-061A,2026-07-18T17:02:30.009120,1.00271766,.00219928,6.5950,88.3313,5.8558,180.9989,0,U,40269,999,4300,0,-.172E-5,0
INTELSAT 30 (IS-30),2014-062A,2026-07-19T05:33:26.401248,1.00271945,.00016432,0.0186,56.6968,335.4201,253.2172,0,U,40271,999,711,0,-.156E-5,0
ARSAT 1,2014-062B,2026-07-19T05:38:02.054400,1.00272638,.00019474,0.0547,272.2378,197.0461,200.4391,0,U,40272,999,4294,0,-.265E-5,0
EUTELSAT 53A,2014-064A,2026-07-18T20:29:58.477056,1.00275359,.00018666,0.0135,40.3903,158.6633,98.1011,0,U,40277,999,4188,0,.91E-6,0
GSAT-16,2014-078A,2026-07-19T03:10:22.601856,1.00270971,.0007508,0.0202,55.9868,39.6203,303.9809,0,U,40332,999,4242,0,.79E-6,0
DIRECTV 14,2014-078B,2026-07-19T06:42:38.615904,1.00270373,.00002965,0.0137,54.0997,327.7583,276.6199,0,U,40333,999,4236,0,-.13E-5,0
YAMAL 401,2014-082A,2026-07-19T03:20:21.645024,1.00269350,.00003436,0.0158,137.7297,293.0762,6.1421,0,U,40345,999,4223,0,-.233E-5,0
